NORAD_CAT_ID,OBJECT_NAME,OBJECT_TYPE,EPOCH,MEAN_MOTION,ECCENTRICITY,INCLINATION,RA_OF_ASC_NODE,ARG_OF_PERICENTER,MEAN_ANOMALY,BSTAR,MEAN_MOTION_DOT,MEAN_MOTION_DDOT,TLE_LINE0,TLE_LINE1,TLE_LINE2,SEMIMAJOR_AXIS,PERIOD,APOGEE,PERIGEE,DECAYED
52334.0,STARLINK-3880,PAYLOAD,2024-06-12 04:52:05,15.08839619,0.0001473,53.2153,181.9319,90.0734,270.0427,2.0871e-05,4.4e-07,0.0,0 STARLINK-3880,1 52334U 22045D   24164.20284256  .00000044  00000-0  20871-4 0  9996,2 52334  53.2153 181.9319 0001473  90.0734 270.0427 15.08839619119696,6917.882,95.438,540.766,538.728,0.0
52334.0,STARLINK-3880,PAYLOAD,2024-06-12 06:27:28,15.08838876,0.0001473,53.2154,181.6346,89.9091,270.207,4.3726e-06,-2.18e-06,0.0,0 STARLINK-3880,1 52334U 22045D   24164.26908271 -.00000218  00000-0  43726-5 0  9991,2 52334  53.2154 181.6346 0001473  89.9091 270.2070 15.08838876119709,6917.884,95.438,540.768,538.73,0.0
52334.0,STARLINK-3880,PAYLOAD,2024-06-12 17:35:10,15.08838758,0.0001451,53.2163,179.5537,90.0645,270.0513,2.8076e-05,1.59e-06,0.0,0 STARLINK-3880,1 52334U 22045D   24164.73276411  .00000159  00000-0  28076-4 0  9990,2 52334  53.2163 179.5537 0001451  90.0645 270.0513 15.08838758119777,6917.884,95.438,540.753,538.745,0.0
52334.0,STARLINK-3880,PAYLOAD,2024-06-13 07:53:38,15.08842354,0.0001419,53.2162,176.8778,89.7293,270.3861,7.6055e-05,9.23e-06,0.0,0 STARLINK-3880,1 52334U 22045D   24165.32892026  .00000923  00000-0  76055-4 0  9991,2 52334  53.2162 176.8778 0001419  89.7293 270.3861 15.08842354119867,6917.873,95.437,540.72,538.757,0.0
52334.0,STARLINK-3880,PAYLOAD,2024-06-13 17:25:57,15.08837243,0.0001386,53.216,175.0936,87.5132,272.6018,5.2402e-05,5.46e-06,0.0,0 STARLINK-3880,1 52334U 22045D   24165.72636408  .00000546  00000-0  52402-4 0  9996,2 52334  53.2160 175.0936 0001386  87.5132 272.6018 15.08837243119920,6917.889,95.438,540.713,538.795,0.0
52334.0,STARLINK-3880,PAYLOAD,2024-06-14 07:44:26,15.08835547,0.0001387,53.2161,172.4183,92.1549,267.9602,7.2949e-05,8.73e-06,0.0,0 STARLINK-3880,1 52334U 22045D   24166.32252647  .00000873  00000-0  72949-4 0  9993,2 52334  53.2161 172.4183 0001387  92.1549 267.9602 15.08835547120014,6917.894,95.438,540.719,538.799,0.0
52334.0,STARLINK-3880,PAYLOAD,2024-06-14 17:16:45,15.08837995,0.0001386,53.2161,170.6341,91.7592,268.3559,7.4543e-05,8.99e-06,0.0,0 STARLINK-3880,1 52334U 22045D   24166.71996578  .00000899  00000-0  74543-4 0  9994,2 52334  53.2161 170.6341 0001386  91.7592 268.3559 15.08837995120073,6917.887,95.438,540.71,538.793,0.0
52334.0,STARLINK-3880,PAYLOAD,2024-06-15 07:35:13,15.08842324,0.0001407,53.2161,167.958,93.133,266.9823,5.54e-05,5.94e-06,0.0,0 STARLINK-3880,1 52334U 22045D   24167.31612367  .00000594  00000-0  55400-4 0  9995,2 52334  53.2161 167.9580 0001407  93.1330 266.9823 15.08842324120167,6917.873,95.437,540.712,538.765,0.0
52334.0,STARLINK-3880,PAYLOAD,2024-06-15 17:07:31,15.08841311,0.0001397,53.2162,166.1735,90.925,269.1902,6.6025e-05,7.63e-06,0.0,0 STARLINK-3880,1 52334U 22045D   24167.71356399  .00000763  00000-0  66025-4 0  9992,2 52334  53.2162 166.1735 0001397  90.9250 269.1902 15.08841311120220,6917.876,95.437,540.708,538.775,0.0
52334.0,STARLINK-3880,PAYLOAD,2024-06-16 07:25:59,15.08843944,0.0001385,53.216,163.4966,91.2219,268.8932,9.4315e-05,1.214e-05,0.0,0 STARLINK-3880,1 52334U 22045D   24168.30972175  .00001214  00000-0  94315-4 0  9999,2 52334  53.2160 163.4966 0001385  91.2219 268.8932 15.08843944120313,6917.868,95.437,540.691,538.775,0.0
52334.0,STARLINK-3880,PAYLOAD,2024-06-16 16:58:19,15.08839747,0.0001353,53.2155,161.7121,90.789,269.3257,4.9997e-05,5.08e-06,0.0,0 STARLINK-3880,1 52334U 22045D   24168.70716534  .00000508  00000-0  49997-4 0  9999,2 52334  53.2155 161.7121 0001353  90.7890 269.3257 15.08839747120373,6917.881,95.438,540.682,538.81,0.0
52334.0,STARLINK-3880,PAYLOAD,2024-06-17 16:49:06,15.08841504,0.0001408,53.2162,157.2516,90.2837,269.8316,4.7575e-05,4.69e-06,0.0,0 STARLINK-3880,1 52334U 22045D   24169.70076400  .00000469  00000-0  47575-4 0  9997,2 52334  53.2162 157.2516 0001408  90.2837 269.8316 15.08841504120528,6917.876,95.437,540.715,538.767,0.0
52334.0,STARLINK-3880,PAYLOAD,2024-06-18 05:32:10,15.08845608,0.0001408,53.2161,154.8727,89.5654,270.55,5.7981e-05,6.35e-06,0.0,0 STARLINK-3880,1 52334U 22045D   24170.23068017  .00000635  00000-0  57981-4 0  9999,2 52334  53.2161 154.8727 0001408  89.5654 270.5500 15.08845608120604,6917.863,95.437,540.702,538.754,0.0
52334.0,STARLINK-3880,PAYLOAD,2024-06-18 08:42:56,15.08846427,0.0001416,53.2161,154.278,89.4721,270.6433,6.3036e-05,7.16e-06,0.0,0 STARLINK-3880,1 52334U 22045D   24170.36315907  .00000716  00000-0  63036-4 0  9994,2 52334  53.2161 154.2780 0001416  89.4721 270.6433 15.08846427120628,6917.861,95.437,540.705,538.746,0.0
52334.0,STARLINK-3880,PAYLOAD,2024-06-19 05:22:58,15.08834882,0.0001463,53.2165,150.411,93.7784,266.3375,1.6773e-05,-2.1e-07,0.0,0 STARLINK-3880,1 52334U 22045D   24171.22428805 -.00000021  00000-0  16773-4 0  9998,2 52334  53.2165 150.4110 0001463  93.7784 266.3375 15.08834882120759,6917.896,95.438,540.773,538.749,0.0
52334.0,STARLINK-3880,PAYLOAD,2024-06-19 08:33:44,15.08834514,0.0001452,53.2168,149.8164,93.4798,266.636,6.5623e-08,-2.87e-06,0.0,0 STARLINK-3880,1 52334U 22045D   24171.35676909 -.00000287  00000-0  65623-7 0  9997,2 52334  53.2168 149.8164 0001452  93.4798 266.6360 15.08834514120774,6917.897,95.438,540.767,538.758,0.0
52334.0,STARLINK-3880,PAYLOAD,2024-06-20 08:24:31,15.08839344,0.0001495,53.2176,145.3556,94.1651,265.9512,8.2189e-06,-1.57e-06,0.0,0 STARLINK-3880,1 52334U 22045D   24172.35036669 -.00000157  00000-0  82189-5 0  9991,2 52334  53.2176 145.3556 0001495  94.1651 265.9512 15.08839344120926,6917.882,95.438,540.782,538.713,0.0
52334.0,STARLINK-3880,PAYLOAD,2024-06-21 03:29:09,15.08832895,0.0001386,53.217,141.7876,93.3663,266.7487,3.5502e-05,2.77e-06,0.0,0 STARLINK-3880,1 52334U 22045D   24173.14525228  .00000277  00000-0  35502-4 0  9991,2 52334  53.2170 141.7876 0001386  93.3663 266.7487 15.08832895121046,6917.902,95.438,540.726,538.808,0.0
52334.0,STARLINK-3880,PAYLOAD,2024-06-21 22:33:47,15.08836645,0.0001403,53.2169,138.22,91.8957,268.2196,2.7253e-05,1.46e-06,0.0,0 STARLINK-3880,1 52334U 22045D   24173.94013352  .00000146  00000-0  27253-4 0  9998,2 52334  53.2169 138.2200 0001403  91.8957 268.2196 15.08836645121169,6917.891,95.438,540.726,538.785,0.0
52334.0,STARLINK-3880,PAYLOAD,2024-06-22 06:30:42,15.08840384,0.0001448,53.217,136.7331,97.2997,262.8159,5.8912e-05,6.5e-06,0.0,0 STARLINK-3880,1 52334U 22045D   24174.27133036  .00000650  00000-0  58912-4 0  9993,2 52334  53.2170 136.7331 0001448  97.2997 262.8159 15.08840384121212,6917.879,95.438,540.746,538.743,0.0
52334.0,STARLINK-3880,PAYLOAD,2024-06-23 03:10:43,15.08837381,0.0001499,53.217,132.8684,101.8818,258.2342,6.3938e-05,7.3e-06,0.0,0 STARLINK-3880,1 52334U 22045D   24175.13245336  .00000730  00000-0  63938-4 0  9999,2 52334  53.2170 132.8684 0001499 101.8818 258.2342 15.08837381121340,6917.888,95.438,540.79,538.716,0.0
52334.0,STARLINK-3880,PAYLOAD,2024-06-24 04:36:54,15.08842961,0.000151,53.2173,128.11,91.453,268.6635,4.5427e-05,4.35e-06,0.0,0 STARLINK-3880,1 52334U 22045D   24176.19229207  .00000435  00000-0  45427-4 0  9990,2 52334  53.2173 128.1100 0001510  91.4530 268.6635 15.08842961121501,6917.871,95.437,540.781,538.692,0.0
52334.0,STARLINK-3880,PAYLOAD,2024-06-25 02:52:17,15.08841568,0.0001661,53.218,123.9457,76.3083,283.8094,5.5557e-05,5.96e-06,0.0,0 STARLINK-3880,1 52334U 22045D   24177.11965276  .00000596  00000-0  55557-4 0  9999,2 52334  53.2180 123.9457 0001661  76.3083 283.8094 15.08841568121644,6917.876,95.437,540.89,538.592,0.0
52334.0,STARLINK-3880,PAYLOAD,2024-06-26 02:43:04,15.08842733,0.000148,53.2176,119.4852,87.678,272.4381,2.1833e-05,6e-07,0.0,0 STARLINK-3880,1 52334U 22045D   24178.11325184  .00000060  00000-0  21833-4 0  9994,2 52334  53.2176 119.4852 0001480  87.6780 272.4381 15.08842733121790,6917.872,95.437,540.761,538.713,0.0
52334.0,STARLINK-3880,PAYLOAD,2024-06-27 00:58:29,15.08838975,0.0001489,53.2174,115.3245,107.5007,252.6148,7.6867e-06,-1.66e-06,0.0,0 STARLINK-3880,1 52334U 22045D   24179.04061373 -.00000166  00000-0  76867-5 0  9990,2 52334  53.2174 115.3245 0001489 107.5007 252.6148 15.08838975121932,6917.884,95.438,540.779,538.718,0.0
52334.0,STARLINK-3880,PAYLOAD,2024-06-28 02:24:39,15.08840531,0.0001277,53.2167,110.567,87.9586,272.1552,2.1385e-05,5.2e-07,0.0,0 STARLINK-3880,1 52334U 22045D   24180.10045593  .00000052  00000-0  21385-4 0  9992,2 52334  53.2167 110.5670 0001277  87.9586 272.1552 15.08840531122096,6917.879,95.438,540.627,538.86,0.0
52334.0,STARLINK-3880,PAYLOAD,2024-06-29 02:15:25,15.0884979,0.0001402,53.2171,106.1125,104.6803,255.4345,0.00013177,1.81e-05,0.0,0 STARLINK-3880,1 52334U 22045D   24181.09404545  .00001810  00000-0  13177-3 0  9999,2 52334  53.2171 106.1125 0001402 104.6803 255.4345 15.08849790122243,6917.85,95.437,540.685,538.746,0.0
52334.0,STARLINK-3880,PAYLOAD,2024-06-29 11:47:45,15.088365,0.0001378,53.2163,104.322,90.8012,269.3138,7.8028e-05,9.54e-06,0.0,0 STARLINK-3880,1 52334U 22045D   24181.49149643  .00000954  00000-0  78028-4 0  9993,2 52334  53.2163 104.3220 0001378  90.8012 269.3138 15.08836500122306,6917.891,95.438,540.709,538.803,0.0
52334.0,STARLINK-3880,PAYLOAD,2024-06-29 22:55:28,15.088221,0.000108,53.216,102.2399,102.1117,257.9996,-0.00012259,-2.237e-05,0.0,0 STARLINK-3880,1 52334U 22045D   24181.95519381 -.00002237  00000-0 -12259-3 0  9995,2 52334  53.2160 102.2399 0001080 102.1117 257.9996 15.08822100122373,6917.935,95.439,540.547,539.053,0.0
52334.0,STARLINK-3880,PAYLOAD,2024-06-30 03:41:37,15.08829797,0.0001366,53.2179,101.347,90.4454,269.6695,-2.4286e-05,-6.74e-06,0.0,0 STARLINK-3880,1 52334U 22045D   24182.15390883 -.00000674  00000-0 -24286-4 0  9999,2 52334  53.2179 101.3470 0001366  90.4454 269.6695 15.08829797122402,6917.912,95.438,540.722,538.832,0.0
